{"type": "FeatureCollection", "features": [ {"type": "Feature", "properties": {"norad_id": 30676, "name": "FENGYUN 1C DEB", "group": "fengyun-1c-debris", "lat": -3.6179759543012264, "lon": -175.3530992085603, "alt_km": 653.5464957599588, "timestamp": "2025-12-25T22:42:17.289298+00:00", "meta": {"OBJECT_NAME": "FENGYUN 1C DEB", "OBJECT_ID": "1999-025AQJ", "EPOCH": "2025-12-24T11:46:03.436320", "MEAN_MOTION": 13.73943621, "ECCENTRICITY": 0.04719218, "INCLINATION": 98.2658, "RA_OF_ASC_NODE": 182.8553, "ARG_OF_PERICENTER": 16.4578, "MEAN_ANOMALY": 345.1319, "EPHEMERIS_TYPE": 0, "CLASSIFICATION_TYPE": "U", "NORAD_CAT_ID": 30676, "ELEMENT_SET_NO": 999, "REV_AT_EPOCH": 94085, "BSTAR": 0.00067072182, "MEAN_MOTION_DOT": 1.377e-05, "MEAN_MOTION_DDOT": 0}, "tle": {"line1": "1 30676U 99025AQJ 25358.49031755  .00001377  00000+0  67072-3 0  9996", "line2": "2 30676  98.2658 182.8553 0471921  16.4578 345.1319 13.73943621940850"}}, "geometry": {"type": "Point", "coordinates": [-175.3530992085603, -3.6179759543012264]}}, {"type": "Feature", "properties": {"norad_id": 30677, "name": "FENGYUN 1C DEB", "group": "fengyun-1c-debris", "lat": -39.52884693844076, "lon": -142.34477270204306, "alt_km": 743.37741688204, "timestamp": "2025-12-25T22:42:17.289308+00:00", "meta": {"OBJECT_NAME": "FENGYUN 1C DEB", "OBJECT_ID": "1999-025AQK", "EPOCH": "2025-12-25T08:36:30.254400", "MEAN_MOTION": 14.38228247, "ECCENTRICITY": 0.0066687, "INCLINATION": 98.2532, "RA_OF_ASC_NODE": 43.9696, "ARG_OF_PERICENTER": 166.5467, "MEAN_ANOMALY": 253.4427, "EPHEMERIS_TYPE": 0, "CLASSIFICATION_TYPE": "U", "NORAD_CAT_ID": 30677, "ELEMENT_SET_NO": 999, "REV_AT_EPOCH": 98161, "BSTAR": 0.0010975, "MEAN_MOTION_DOT": 3.381e-05, "MEAN_MOTION_DDOT": 0}, "tle": {"line1": "1 30677U 99025AQK 25359.35868350  .00003381  00000+0  10975-2 0  9998", "line2": "2 30677  98.2532  43.9696 0066687 166.5467 253.4427 14.38228247981612"}}, "geometry": {"type": "Point", "coordinates": [-142.34477270204306, -39.52884693844076]}}, {"type": "Feature", "properties": {"norad_id": 30678, "name": "FENGYUN 1C DEB", "group": "fengyun-1c-debris", "lat": 53.37896381829156, "lon": 153.56842321699204, "alt_km": 784.8328497746097, "timestamp": "2025-12-25T22:42:17.289320+00:00", "meta": {"OBJECT_NAME": "FENGYUN 1C DEB", "OBJECT_ID": "1999-025AQL", "EPOCH": "2025-12-25T10:53:46.883040", "MEAN_MOTION": 14.24322806, "ECCENTRICITY": 0.0070945, "INCLINATION": 99.0804, "RA_OF_ASC_NODE": 320.6344, "ARG_OF_PERICENTER": 193.2222, "MEAN_ANOMALY": 291.637, "EPHEMERIS_TYPE": 0, "CLASSIFICATION_TYPE": "U", "NORAD_CAT_ID": 30678, "ELEMENT_SET_NO": 999, "REV_AT_EPOCH": 96056, "BSTAR": 0.0027559, "MEAN_MOTION_DOT": 6.493e-05, "MEAN_MOTION_DDOT": 0}, "tle": {"line1": "1 30678U 99025AQL 25359.45401485  .00006493  00000+0  27559-2 0  9995", "line2": "2 30678  99.0804 320.6344 0070945 193.2222 291.6370 14.24322806960560"}}, "geometry": {"type": "Point", "coordinates": [153.56842321699204, 53.37896381829156]}}, {"type": "Feature", "properties": {"norad_id": 30679, "name": "FENGYUN 1C DEB", "group": "fengyun-1c-debris", "lat": -65.49522248782885, "lon": 72.84124998914513, "alt_km": 1015.4992745826175, "timestamp": "2025-12-25T22:42:17.289331+00:00", "meta": {"OBJECT_NAME": "FENGYUN 1C DEB", "OBJECT_ID": "1999-025AQM", "EPOCH": "2025-12-23T22:53:19.178016", "MEAN_MOTION": 13.79730966, "ECCENTRICITY": 0.0171095, "INCLINATION": 99.3803, "RA_OF_ASC_NODE": 49.6049, "ARG_OF_PERICENTER": 49.215, "MEAN_ANOMALY": 74.6471, "EPHEMERIS_TYPE": 0, "CLASSIFICATION_TYPE": "U", "NORAD_CAT_ID": 30679, "ELEMENT_SET_NO": 999, "REV_AT_EPOCH": 94674, "BSTAR": 0.00061875, "MEAN_MOTION_DOT": 6.7e-06, "MEAN_MOTION_DDOT": 0}, "tle": {"line1": "1 30679U 99025AQM 25357.95369419  .00000670  00000+0  61875-3 0  9990", "line2": "2 30679  99.3803  49.6049 0171095  49.2150  74.6471 13.79730966946745"}}, "geometry": {"type": "Point", "coordinates": [72.84124998914513, -65.49522248782885]}}, {"type": "Feature", "properties": {"norad_id": 30680, "name": "FENGYUN 1C DEB", "group": "fengyun-1c-debris", "lat": 60.691340095238374, "lon": -120.11208842326732, "alt_km": 804.3007491046737, "timestamp": "2025-12-25T22:42:17.289341+00:00", "meta": {"OBJECT_NAME": "FENGYUN 1C DEB", "OBJECT_ID": "1999-025AQN", "EPOCH": "2025-12-24T19:34:32.080512", "MEAN_MOTION": 13.56214032, "ECCENTRICITY": 0.03361339, "INCLINATION": 99.6301, "RA_OF_ASC_NODE": 41.1774, "ARG_OF_PERICENTER": 137.8725, "MEAN_ANOMALY": 224.8781, "EPHEMERIS_TYPE": 0, "CLASSIFICATION_TYPE": "U", "NORAD_CAT_ID": 30680, "ELEMENT_SET_NO": 999, "REV_AT_EPOCH": 92417, "BSTAR": 0.0046804274, "MEAN_MOTION_DOT": 4.692e-05, "MEAN_MOTION_DDOT": 0}, "tle": {"line1": "1 30680U 99025AQN 25358.81564908  .00004692  00000+0  46804-2 0  9990", "line2": "2 30680  99.6301  41.1774 0336133 137.8725 224.8781 13.56214032924175"}}, "geometry": {"type": "Point", "coordinates": [-120.11208842326732, 60.691340095238374]}}, {"type": "Feature", "properties": {"norad_id": 30683, "name": "FENGYUN 1C DEB", "group": "fengyun-1c-debris", "lat": 9.15628754266803, "lon": 10.312549791589532, "alt_km": 994.4174242157769, "timestamp": "2025-12-25T22:42:17.289351+00:00", "meta": {"OBJECT_NAME": "FENGYUN 1C DEB", "OBJECT_ID": "1999-025AQR", "EPOCH": "2025-12-25T13:06:58.710240", "MEAN_MOTION": 14.00429844, "ECCENTRICITY": 0.0138248, "INCLINATION": 99.4266, "RA_OF_ASC_NODE": 11.4351, "ARG_OF_PERICENTER": 189.5826, "MEAN_ANOMALY": 326.7246, "EPHEMERIS_TYPE": 0, "CLASSIFICATION_TYPE": "U", "NORAD_CAT_ID": 30683, "ELEMENT_SET_NO": 999, "REV_AT_EPOCH": 95730, "BSTAR": 0.001076, "MEAN_MOTION_DOT": 1.686e-05, "MEAN_MOTION_DDOT": 0}, "tle": {"line1": "1 30683U 99025AQR 25359.54651285  .00001686  00000+0  10760-2 0  9991", "line2": "2 30683  99.4266  11.4351 0138248 189.5826 326.7246 14.00429844957308"}}, "geometry": {"type": "Point", "coordinates": [10.312549791589532, 9.15628754266803]}}, {"type": "Feature", "properties": {"norad_id": 30684, "name": "FENGYUN 1C DEB", "group": "fengyun-1c-debris", "lat": 29.34089778111613, "lon": 35.728824675074385, "alt_km": 1166.0948218148096, "timestamp": "2025-12-25T22:42:17.289363+00:00", "meta": {"OBJECT_NAME": "FENGYUN 1C DEB", "OBJECT_ID": "1999-025AQS", "EPOCH": "2025-12-25T13:46:12.707616", "MEAN_MOTION": 13.66832566, "ECCENTRICITY": 0.023623, "INCLINATION": 99.5309, "RA_OF_ASC_NODE": 40.7807, "ARG_OF_PERICENTER": 236.4133, "MEAN_ANOMALY": 121.4261, "EPHEMERIS_TYPE": 0, "CLASSIFICATION_TYPE": "U", "NORAD_CAT_ID": 30684, "ELEMENT_SET_NO": 999, "REV_AT_EPOCH": 93804, "BSTAR": 0.0010195, "MEAN_MOTION_DOT": 9.85e-06, "MEAN_MOTION_DDOT": 0}, "tle": {"line1": "1 30684U 99025AQS 25359.57375819  .00000985  00000+0  10195-2 0  9994", "line2": "2 30684  99.5309  40.7807 0236230 236.4133 121.4261 13.66832566938049"}}, "geometry": {"type": "Point", "coordinates": [35.728824675074385, 29.34089778111613]}}, {"type": "Feature", "properties": {"norad_id": 30686, "name": "FENGYUN 1C DEB", "group": "fengyun-1c-debris", "lat": 13.608683666081118, "lon": -166.86149008305713, "alt_km": 606.6125297991084, "timestamp": "2025-12-25T22:42:17.289374+00:00", "meta": {"OBJECT_NAME": "FENGYUN 1C DEB", "OBJECT_ID": "1999-025AQU", "EPOCH": "2025-12-25T00:31:59.014848", "MEAN_MOTION": 14.73999147, "ECCENTRICITY": 0.01440618, "INCLINATION": 99.0328, "RA_OF_ASC_NODE": 194.3169, "ARG_OF_PERICENTER": 82.5561, "MEAN_ANOMALY": 73.5306, "EPHEMERIS_TYPE": 0, "CLASSIFICATION_TYPE": "U", "NORAD_CAT_ID": 30686, "ELEMENT_SET_NO": 999, "REV_AT_EPOCH": 99782, "BSTAR": 0.00068849051, "MEAN_MOTION_DOT": 5.279e-05, "MEAN_MOTION_DDOT": 0}, "tle": {"line1": "1 30686U 99025AQU 25359.02221082  .00005279  00000+0  68849-3 0  9999", "line2": "2 30686  99.0328 194.3169 0144061  82.5561  73.5306 14.73999147997825"}}, "geometry": {"type": "Point", "coordinates": [-166.86149008305713, 13.608683666081118]}}, {"type": "Feature", "properties": {"norad_id": 30688, "name": "FENGYUN 1C DEB", "group": "fengyun-1c-debris", "lat": 5.184993348770271, "lon": -105.82967237042033, "alt_km": 786.5103831937759, "timestamp": "2025-12-25T22:42:17.289386+00:00", "meta": {"OBJECT_NAME": "FENGYUN 1C DEB", "OBJECT_ID": "1999-025AQW", "EPOCH": "2025-12-25T03:35:53.388672", "MEAN_MOTION": 14.32798293, "ECCENTRICITY": 0.00159684, "INCLINATION": 98.7001, "RA_OF_ASC_NODE": 72.5751, "ARG_OF_PERICENTER": 276.689, "MEAN_ANOMALY": 114.0669, "EPHEMERIS_TYPE": 0, "CLASSIFICATION_TYPE": "U", "NORAD_CAT_ID": 30688, "ELEMENT_SET_NO": 999, "REV_AT_EPOCH": 97438, "BSTAR": 0.00169054, "MEAN_MOTION_DOT": 4.572e-05, "MEAN_MOTION_DDOT": 0}, "tle": {"line1": "1 30688U 99025AQW 25359.14992348  .00004572  00000+0  16905-2 0  9994", "line2": "2 30688  98.7001  72.5751 0015968 276.6890 114.0669 14.32798293974382"}}, "geometry": {"type": "Point", "coordinates": [-105.82967237042033, 5.184993348770271]}}, {"type": "Feature", "properties": {"norad_id": 30689, "name": "FENGYUN 1C DEB", "group": "fengyun-1c-debris", "lat": -71.79342581611866, "lon": 138.0194991567488, "alt_km": 940.6153410567831, "timestamp": "2025-12-25T22:42:17.289396+00:00", "meta": {"OBJECT_NAME": "FENGYUN 1C DEB", "OBJECT_ID": "1999-025AQX", "EPOCH": "2025-12-24T12:04:48.913824", "MEAN_MOTION": 14.11784267, "ECCENTRICITY": 0.01117881, "INCLINATION": 98.7093, "RA_OF_ASC_NODE": 344.396, "ARG_OF_PERICENTER": 70.1733, "MEAN_ANOMALY": 55.6559, "EPHEMERIS_TYPE": 0, "CLASSIFICATION_TYPE": "U", "NORAD_CAT_ID": 30689, "ELEMENT_SET_NO": 999, "REV_AT_EPOCH": 97056, "BSTAR": 0.0003929221, "MEAN_MOTION_DOT": 7.18e-06, "MEAN_MOTION_DDOT": 0}, "tle": {"line1": "1 30689U 99025AQX 25358.50334391  .00000718  00000+0  39292-3 0  9995", "line2": "2 30689  98.7093 344.3960 0111788  70.1733  55.6559 14.11784267970563"}}, "geometry": {"type": "Point", "coordinates": [138.0194991567488, -71.79342581611866]}}]}